NORAD_CAT_ID,OBJECT_NAME,OBJECT_TYPE,EPOCH,MEAN_MOTION,ECCENTRICITY,INCLINATION,RA_OF_ASC_NODE,ARG_OF_PERICENTER,MEAN_ANOMALY,BSTAR,MEAN_MOTION_DOT,MEAN_MOTION_DDOT,TLE_LINE0,TLE_LINE1,TLE_LINE2,SEMIMAJOR_AXIS,PERIOD,APOGEE,PERIGEE,DECAYED
50203.0,STARLINK-3257,PAYLOAD,2024-02-26 17:38:11,15.08839446,0.0002242,53.2191,329.9749,82.2303,277.8944,0.00013604,1.877e-05,0.0,0 STARLINK-3257,1 50203U 21125AZ  24057.73485824  .00001877  00000-0  13604-3 0  9990,2 50203  53.2191 329.9749 0002242  82.2303 277.8944 15.08839446121647,6917.882,95.438,541.298,538.196,0.0
50203.0,STARLINK-3257,PAYLOAD,2024-02-26 22:24:21,15.08832377,0.0001564,53.2202,329.0811,85.0944,275.0227,7.4668e-05,9e-06,0.0,0 STARLINK-3257,1 50203U 21125AZ  24057.93358434  .00000900  00000-0  74668-4 0  9992,2 50203  53.2202 329.0811 0001564  85.0944 275.0227 15.08832377124811,6917.904,95.438,540.851,538.687,0.0
50203.0,STARLINK-3257,PAYLOAD,2024-02-27 11:07:26,15.08839158,0.000163,53.218,326.7006,86.4014,273.7165,-2.722e-05,-7.21e-06,0.0,0 STARLINK-3257,1 50203U 21125AZ  24058.46349801 -.00000721  00000-0 -27220-4 0  9994,2 50203  53.2180 326.7006 0001630  86.4014 273.7165 15.08839158124891,6917.883,95.438,540.876,538.62,0.0
50203.0,STARLINK-3257,PAYLOAD,2024-02-27 22:15:08,15.08841975,0.000135,53.217,324.6223,83.4528,276.6618,7.0286e-05,8.31e-06,0.0,0 STARLINK-3257,1 50203U 21125AZ  24058.92717713  .00000831  00000-0  70286-4 0  9996,2 50203  53.2170 324.6223 0001350  83.4528 276.6618 15.08841975124967,6917.874,95.437,540.673,538.805,0.0
50203.0,STARLINK-3257,PAYLOAD,2024-02-28 03:01:16,15.0885241,0.0001333,53.2166,323.7284,88.6198,271.4947,0.00010171,1.332e-05,0.0,0 STARLINK-3257,1 50203U 21125AZ  24059.12589060  .00001332  00000-0  10171-3 0  9994,2 50203  53.2166 323.7284 0001333  88.6198 271.4947 15.08852410121859,6917.842,95.437,540.63,538.785,0.0
50203.0,STARLINK-3257,PAYLOAD,2024-02-28 10:58:12,15.08844531,0.0001445,53.2167,322.2422,87.4215,272.6943,2.178e-05,5.9e-07,0.0,0 STARLINK-3257,1 50203U 21125AZ  24059.45709404  .00000059  00000-0  21780-4 0  9990,2 50203  53.2167 322.2422 0001445  87.4215 272.6943 15.08844531121909,6917.867,95.437,540.731,538.732,0.0
50203.0,STARLINK-3257,PAYLOAD,2024-02-28 22:05:55,15.08835524,0.0001534,53.2171,320.1602,84.9952,275.1215,0.00010181,1.333e-05,0.0,0 STARLINK-3257,1 50203U 21125AZ  24059.92078142  .00001333  00000-0  10181-3 0  9998,2 50203  53.2171 320.1602 0001534  84.9952 275.1215 15.08835524125119,6917.894,95.438,540.82,538.698,0.0
50203.0,STARLINK-3257,PAYLOAD,2024-02-29 10:49:00,15.088373,0.0001336,53.2172,317.776,109.0442,251.0695,8.2776e-05,1.03e-05,0.0,0 STARLINK-3257,1 50203U 21125AZ  24060.45069942  .00001030  00000-0  82776-4 0  9990,2 50203  53.2172 317.7760 0001336 109.0442 251.0695 15.08837300122059,6917.889,95.438,540.678,538.829,0.0
50203.0,STARLINK-3257,PAYLOAD,2024-02-29 21:56:42,15.08830693,9.06e-05,53.2178,315.695,118.6081,241.5002,0.00022691,3.324e-05,0.0,0 STARLINK-3257,1 50203U 21125AZ  24060.91438051  .00003324  00000-0  22691-3 0  9999,2 50203  53.2178 315.6950 0000906 118.6081 241.5002 15.08830693125260,6917.909,95.438,540.401,539.147,0.0
50203.0,STARLINK-3257,PAYLOAD,2024-03-01 02:42:51,15.08839637,0.0001596,53.2185,314.8038,117.3715,242.7439,0.00012769,1.745e-05,0.0,0 STARLINK-3257,1 50203U 21125AZ  24061.11309783  .00001745  00000-0  12769-3 0  9991,2 50203  53.2185 314.8038 0001596 117.3715 242.7439 15.08839637125299,6917.881,95.438,540.851,538.642,0.0
50203.0,STARLINK-3257,PAYLOAD,2024-03-01 20:12:05,15.08866428,0.0001745,53.2185,311.5313,98.0717,262.0473,-0.00034243,-5.738e-05,0.0,0 STARLINK-3257,1 50203U 21125AZ  24061.84173023 -.00005738  00000-0 -34243-3 0  9996,2 50203  53.2185 311.5313 0001745  98.0717 262.0473 15.08866428122267,6917.8,95.436,540.872,538.457,0.0
50203.0,STARLINK-3257,PAYLOAD,2024-03-01 21:47:28,15.088578,0.0001729,53.2188,311.2339,100.5317,259.587,-0.00020185,-3.501e-05,0.0,0 STARLINK-3257,1 50203U 21125AZ  24061.90797225 -.00003501  00000-0 -20185-3 0  9995,2 50203  53.2188 311.2339 0001729 100.5317 259.5870 15.08857800125418,6917.826,95.436,540.887,538.495,0.0
50203.0,STARLINK-3257,PAYLOAD,2024-03-01 23:22:52,15.08841558,0.0001533,53.2192,310.9375,99.1745,260.9421,4.0778e-05,3.61e-06,0.0,0 STARLINK-3257,1 50203U 21125AZ  24061.97421944  .00000361  00000-0  40778-4 0  9994,2 50203  53.2192 310.9375 0001533  99.1745 260.9421 15.08841558122283,6917.876,95.437,540.801,538.68,0.0
50203.0,STARLINK-3257,PAYLOAD,2024-03-02 21:38:16,15.0884025,0.0001434,53.2181,306.7732,104.4734,255.6417,6.3341e-05,7.2e-06,0.0,0 STARLINK-3257,1 50203U 21125AZ  24062.90157986  .00000720  00000-0  63341-4 0  9990,2 50203  53.2181 306.7732 0001434 104.4734 255.6417 15.08840250125567,6917.88,95.438,540.737,538.753,0.0
50203.0,STARLINK-3257,PAYLOAD,2024-03-03 02:24:26,15.08810858,0.0001566,53.2179,305.881,97.6891,262.4279,0.00049583,7.606e-05,0.0,0 STARLINK-3257,1 50203U 21125AZ  24063.10030909  .00007606  00000-0  49583-3 0  9999,2 50203  53.2179 305.8810 0001566  97.6891 262.4279 15.08810858122452,6917.969,95.439,540.918,538.751,0.0
50203.0,STARLINK-3257,PAYLOAD,2024-03-03 08:45:58,15.08838882,0.0001338,53.2177,304.6916,84.8319,275.2826,5.7594e-05,6.29e-06,0.0,0 STARLINK-3257,1 50203U 21125AZ  24063.36526203  .00000629  00000-0  57594-4 0  9994,2 50203  53.2177 304.6916 0001338  84.8319 275.2826 15.08838882122495,6917.884,95.438,540.674,538.823,0.0
50203.0,STARLINK-3257,PAYLOAD,2024-03-03 21:29:03,15.08845097,0.0001236,53.2166,302.3173,82.4492,277.6641,9.6997e-05,1.256e-05,0.0,0 STARLINK-3257,1 50203U 21125AZ  24063.89517978  .00001256  00000-0  96997-4 0  9998,2 50203  53.2166 302.3173 0001236  82.4492 277.6641 15.08845097125711,6917.865,95.437,540.585,538.875,0.0
50203.0,STARLINK-3257,PAYLOAD,2024-03-04 00:39:49,15.08849484,0.0001194,53.2175,301.7227,100.9104,259.2023,0.00013275,1.826e-05,0.0,0 STARLINK-3257,1 50203U 21125AZ  24064.02765423  .00001826  00000-0  13275-3 0  9994,2 50203  53.2175 301.7227 0001194 100.9104 259.2023 15.08849484122590,6917.851,95.437,540.542,538.89,0.0
50203.0,STARLINK-3257,PAYLOAD,2024-03-04 10:12:08,15.08844392,0.0001059,53.217,299.9396,120.5839,239.5258,0.00014056,1.95e-05,0.0,0 STARLINK-3257,1 50203U 21125AZ  24064.42509565  .00001950  00000-0  14056-3 0  9997,2 50203  53.2170 299.9396 0001059 120.5839 239.5258 15.08844392122654,6917.867,95.437,540.465,538.999,0.0
50203.0,STARLINK-3257,PAYLOAD,2024-03-04 21:19:49,15.08856372,0.000136,53.2168,297.8579,118.695,241.4179,0.00011347,1.519e-05,0.0,0 STARLINK-3257,1 50203U 21125AZ  24064.88876659  .00001519  00000-0  11347-3 0  9999,2 50203  53.2168 297.8579 0001360 118.6950 241.4179 15.08856372122721,6917.83,95.437,540.636,538.755,0.0
50203.0,STARLINK-3257,PAYLOAD,2024-03-04 22:55:12,15.08858598,0.0001321,53.2161,297.5605,116.3413,243.7715,9.0758e-05,1.157e-05,0.0,0 STARLINK-3257,1 50203U 21125AZ  24064.95500554  .00001157  00000-0  90758-4 0  9997,2 50203  53.2161 297.5605 0001321 116.3413 243.7715 15.08858598125879,6917.824,95.436,540.602,538.775,0.0
50203.0,STARLINK-3257,PAYLOAD,2024-03-05 14:49:04,15.08835058,0.0001102,53.2161,294.5858,89.5546,270.5573,1.3653e-05,-7.1e-07,0.0,0 STARLINK-3257,1 50203U 21125AZ  24065.61741790 -.00000071  00000-0  13653-4 0  9994,2 50203  53.2161 294.5858 0001102  89.5546 270.5573 15.08835058125978,6917.895,95.438,540.523,538.998,0.0
50203.0,STARLINK-3257,PAYLOAD,2024-03-05 21:10:37,15.08827516,0.0001098,53.2158,293.3951,114.5383,245.5723,-0.0002141,-3.692e-05,0.0,0 STARLINK-3257,1 50203U 21125AZ  24065.88237851 -.00003692  00000-0 -21410-3 0  9993,2 50203  53.2158 293.3951 0001098 114.5383 245.5723 15.08827516122872,6917.919,95.438,540.543,539.024,0.0
50203.0,STARLINK-3257,PAYLOAD,2024-03-05 22:46:00,15.08826936,0.0001081,53.2157,293.0986,98.4715,261.64,-0.00017822,-3.122e-05,0.0,0 STARLINK-3257,1 50203U 21125AZ  24065.94862020 -.00003122  00000-0 -17822-3 0  9992,2 50203  53.2157 293.0986 0001081  98.4715 261.6400 15.08826936126024,6917.92,95.438,540.533,539.037,0.0
50203.0,STARLINK-3257,PAYLOAD,2024-03-06 19:26:01,15.08835532,9.11e-05,53.2158,289.2307,76.2723,283.837,0.00017417,2.485e-05,0.0,0 STARLINK-3257,1 50203U 21125AZ  24066.80974156  .00002485  00000-0  17417-3 0  9991,2 50203  53.2158 289.2307 0000911  76.2723 283.8370 15.08835532123013,6917.894,95.438,540.389,539.129,0.0
50203.0,STARLINK-3257,PAYLOAD,2024-03-07 08:09:06,15.08839502,0.0001234,53.2162,286.8511,84.8003,275.313,0.00020076,2.909e-05,0.0,0 STARLINK-3257,1 50203U 21125AZ  24067.33966157  .00002909  00000-0  20076-3 0  9998,2 50203  53.2162 286.8511 0001234  84.8003 275.3130 15.08839502126231,6917.882,95.438,540.601,538.893,0.0
50203.0,STARLINK-3257,PAYLOAD,2024-03-08 00:02:58,15.08843813,0.0001428,53.2169,283.8776,104.0732,256.0419,0.00034236,5.165e-05,0.0,0 STARLINK-3257,1 50203U 21125AZ  24068.00206218  .00005165  00000-0  34236-3 0  9998,2 50203  53.2169 283.8776 0001428 104.0732 256.0419 15.08843813123195,6917.869,95.437,540.722,538.746,0.0
50203.0,STARLINK-3257,PAYLOAD,2024-03-08 20:42:58,15.08856041,0.0001364,53.2165,280.0118,92.1128,268.002,0.0002243,3.285e-05,0.0,0 STARLINK-3257,1 50203U 21125AZ  24068.86317230  .00003285  00000-0  22430-3 0  9993,2 50203  53.2165 280.0118 0001364  92.1128 268.0020 15.08856041126466,6917.831,95.437,540.64,538.753,0.0
50203.0,STARLINK-3257,PAYLOAD,2024-03-08 23:53:44,15.08859801,0.0001394,53.2162,279.415,84.334,275.7811,0.00034299,5.178e-05,0.0,0 STARLINK-3257,1 50203U 21125AZ  24068.99565037  .00005178  00000-0  34299-3 0  9996,2 50203  53.2162 279.4150 0001394  84.3340 275.7811 15.08859801123347,6917.82,95.436,540.649,538.721,0.0
50203.0,STARLINK-3257,PAYLOAD,2024-03-09 20:33:46,15.08833565,0.0001141,53.2157,275.5527,71.5495,288.5621,-0.00010189,-1.909e-05,0.0,0 STARLINK-3257,1 50203U 21125AZ  24069.85678296 -.00001909  00000-0 -10189-3 0  9996,2 50203  53.2157 275.5527 0001141  71.5495 288.5621 15.08833565123479,6917.9,95.438,540.554,538.976,0.0
